IRIDIUM 63              
1 25286U 98021B   25099.49769863  .00000867  00000+0  28926-3 0  9990
2 25286  86.3930 110.9578 0002426  92.9968 267.1506 14.36469224414256
IRIDIUM 69              
1 25319U 98026A   25098.81786806  .00000939  00000+0  28707-3 0  9990
2 25319  86.3945 124.7443 0000748 168.6926 191.4290 14.40877305413079
IRIDIUM 71              
1 25320U 98026B   25099.45897858  .00000873  00000+0  26511-3 0  9991
2 25320  86.3933 119.1757 0001645  28.4863 331.6426 14.41076920413944
IRIDIUM 73              
1 25344U 98032C   25098.92453114  .00001518  00000+0  37422-3 0  9998
2 25344  86.4373  76.2314 0001940 100.0035 260.1389 14.51590957420514
IRIDIUM 82              
1 25467U 98051A   25099.50383392  .00037628  00000+0  11969-2 0  9998
2 25467  86.3695 143.4116 0092194 195.0194 164.8314 15.28302638413459
